{
  "links" : {
    "next" : "https://api.nasa.gov/neo/rest/v1/feed?start_date=2004-06-09&end_date=2004-06-09&detailed=true&api_key=t0TVs3DtDT2H8Oy2Zy8m2eVrNsAVKAexjcZXUckd",
    "prev" : "https://api.nasa.gov/neo/rest/v1/feed?start_date=2004-06-07&end_date=2004-06-07&detailed=true&api_key=t0TVs3DtDT2H8Oy2Zy8m2eVrNsAVKAexjcZXUckd",
    "self" : "https://api.nasa.gov/neo/rest/v1/feed?start_date=2004-06-08&end_date=2004-06-08&detailed=true&api_key=t0TVs3DtDT2H8Oy2Zy8m2eVrNsAVKAexjcZXUckd"
  },
  "element_count" : 5,
  "near_earth_objects" : {
    "2004-06-08" : [ {
      "links" : {
        "self" : "https://api.nasa.gov/neo/rest/v1/neo/3184158?api_key=t0TVs3DtDT2H8Oy2Zy8m2eVrNsAVKAexjcZXUckd"
      },
      "neo_reference_id" : "3184158",
      "name" : "(2004 MV2)",
      "nasa_jpl_url" : "http://ssd.jpl.nasa.gov/sbdb.cgi?sstr=3184158",
      "absolute_magnitude_h" : 23.5,
      "estimated_diameter" : {
        "kilometers" : {
          "estimated_diameter_min" : 0.0530340723,
          "estimated_diameter_max" : 0.1185877909
        },
        "meters" : {
          "estimated_diameter_min" : 53.0340723319,
          "estimated_diameter_max" : 118.5877908577
        },
        "miles" : {
          "estimated_diameter_min" : 0.0329538346,
          "estimated_diameter_max" : 0.0736870142
        },
        "feet" : {
          "estimated_diameter_min" : 173.9963058693,
          "estimated_diameter_max" : 389.0675677576
        }
      },
      "is_potentially_hazardous_asteroid" : false,
      "close_approach_data" : [ {
        "close_approach_date" : "2004-06-08",
        "epoch_date_close_approach" : 1086678000000,
        "relative_velocity" : {
          "kilometers_per_second" : "11.1103464784",
          "kilometers_per_hour" : "39997.2473223836",
          "miles_per_hour" : "24852.7340376222"
        },
        "miss_distance" : {
          "astronomical" : "0.0851212175",
          "lunar" : "33.1121520996",
          "kilometers" : "12733953",
          "miles" : "7912511.5"
        },
        "orbiting_body" : "Earth"
      } ],
      "orbital_data" : {
        "orbit_id" : "9",
        "orbit_determination_date" : "2017-04-06 09:12:36",
        "orbit_uncertainty" : "9",
        "minimum_orbit_intersection" : ".0671242",
        "jupiter_tisserand_invariant" : "3.891",
        "epoch_osculation" : "2453177.5",
        "eccentricity" : ".4772653795012582",
        "semi_major_axis" : "1.820109086128355",
        "inclination" : "6.619243745962279",
        "ascending_node_longitude" : "103.5599258804456",
        "orbital_period" : "896.9010933264339",
        "perihelion_distance" : ".9514340324036171",
        "perihelion_argument" : "105.8172746901775",
        "aphelion_distance" : "2.688784139853092",
        "perihelion_time" : "2453127.057564387694",
        "mean_anomaly" : "20.24668824193411",
        "mean_motion" : ".4013820505724094",
        "equinox" : "J2000"
      }
    }, {
      "links" : {
        "self" : "https://api.nasa.gov/neo/rest/v1/neo/2351278?api_key=t0TVs3DtDT2H8Oy2Zy8m2eVrNsAVKAexjcZXUckd"
      },
      "neo_reference_id" : "2351278",
      "name" : "351278 (2004 SB20)",
      "nasa_jpl_url" : "http://ssd.jpl.nasa.gov/sbdb.cgi?sstr=2351278",
      "absolute_magnitude_h" : 18.8,
      "estimated_diameter" : {
        "kilometers" : {
          "estimated_diameter_min" : 0.4619074603,
          "estimated_diameter_max" : 1.0328564805
        },
        "meters" : {
          "estimated_diameter_min" : 461.9074602816,
          "estimated_diameter_max" : 1032.8564805039
        },
        "miles" : {
          "estimated_diameter_min" : 0.2870159005,
          "estimated_diameter_max" : 0.6417870641
        },
        "feet" : {
          "estimated_diameter_min" : 1515.4444719902,
          "estimated_diameter_max" : 3388.6368554964
        }
      },
      "is_potentially_hazardous_asteroid" : false,
      "close_approach_data" : [ {
        "close_approach_date" : "2004-06-08",
        "epoch_date_close_approach" : 1086678000000,
        "relative_velocity" : {
          "kilometers_per_second" : "20.5992825195",
          "kilometers_per_hour" : "74157.41707029",
          "miles_per_hour" : "46078.5350679255"
        },
        "miss_distance" : {
          "astronomical" : "0.4592328779",
          "lunar" : "178.6415863037",
          "kilometers" : "68700256",
          "miles" : "42688364"
        },
        "orbiting_body" : "Earth"
      } ],
      "orbital_data" : {
        "orbit_id" : "43",
        "orbit_determination_date" : "2017-04-06 09:23:04",
        "orbit_uncertainty" : "0",
        "minimum_orbit_intersection" : ".267664",
        "jupiter_tisserand_invariant" : "5.149",
        "epoch_osculation" : "2458000.5",
        "eccentricity" : ".4132087486488529",
        "semi_major_axis" : "1.182812836503606",
        "inclination" : "30.2766324159152",
        "ascending_node_longitude" : "30.92229209275155",
        "orbital_period" : "469.8643233976612",
        "perihelion_distance" : ".6940642244461509",
        "perihelion_argument" : "209.3658941657666",
        "aphelion_distance" : "1.671561448561062",
        "perihelion_time" : "2457861.277468117882",
        "mean_anomaly" : "106.6693276798209",
        "mean_motion" : ".7661786223665261",
        "equinox" : "J2000"
      }
    }, {
      "links" : {
        "self" : "https://api.nasa.gov/neo/rest/v1/neo/3172322?api_key=t0TVs3DtDT2H8Oy2Zy8m2eVrNsAVKAexjcZXUckd"
      },
      "neo_reference_id" : "3172322",
      "name" : "(2004 BY1)",
      "nasa_jpl_url" : "http://ssd.jpl.nasa.gov/sbdb.cgi?sstr=3172322",
      "absolute_magnitude_h" : 24.5,
      "estimated_diameter" : {
        "kilometers" : {
          "estimated_diameter_min" : 0.0334622374,
          "estimated_diameter_max" : 0.0748238376
        },
        "meters" : {
          "estimated_diameter_min" : 33.4622374455,
          "estimated_diameter_max" : 74.8238376074
        },
        "miles" : {
          "estimated_diameter_min" : 0.0207924639,
          "estimated_diameter_max" : 0.0464933628
        },
        "feet" : {
          "estimated_diameter_min" : 109.7842471007,
          "estimated_diameter_max" : 245.4850393757
        }
      },
      "is_potentially_hazardous_asteroid" : false,
      "close_approach_data" : [ {
        "close_approach_date" : "2004-06-08",
        "epoch_date_close_approach" : 1086678000000,
        "relative_velocity" : {
          "kilometers_per_second" : "6.2967301641",
          "kilometers_per_hour" : "22668.2285906175",
          "miles_per_hour" : "14085.1557039867"
        },
        "miss_distance" : {
          "astronomical" : "0.2476804701",
          "lunar" : "96.3477020264",
          "kilometers" : "37052472",
          "miles" : "23023338"
        },
        "orbiting_body" : "Earth"
      } ],
      "orbital_data" : {
        "orbit_id" : "11",
        "orbit_determination_date" : "2017-04-06 09:13:17",
        "orbit_uncertainty" : "7",
        "minimum_orbit_intersection" : ".0215237",
        "jupiter_tisserand_invariant" : "6.688",
        "epoch_osculation" : "2458000.5",
        "eccentricity" : ".2217253837211308",
        "semi_major_axis" : ".8841284108273166",
        "inclination" : "3.606078312084671",
        "ascending_node_longitude" : "298.823037677018",
        "orbital_period" : "303.6487143582023",
        "perihelion_distance" : ".6880946996778763",
        "perihelion_argument" : "28.23118454951225",
        "aphelion_distance" : "1.080162121976757",
        "perihelion_time" : "2458068.304798950207",
        "mean_anomaly" : "279.6119513508648",
        "mean_motion" : "1.185580517806252",
        "equinox" : "J2000"
      }
    } ]
  }
}